[{"OBJECT_NAME":"QIANFAN-27","OBJECT_ID":"2024-185J","EPOCH":"2026-03-09T22:56:55.395744","MEAN_MOTION":14.27448593,"ECCENTRICITY":0.00081881,"INCLINATION":88.9753,"RA_OF_ASC_NODE":66.6975,"ARG_OF_PERICENTER":20.0445,"MEAN_ANOMALY":340.107,"EPHEMERIS_TYPE":0,"CLASSIFICATION_TYPE":"U","NORAD_CAT_ID":61560,"ELEMENT_SET_NO":999,"REV_AT_EPOCH":8260,"BSTAR":0.00025107237,"MEAN_MOTION_DOT":6.31e-6,"MEAN_MOTION_DDOT":0},{"OBJECT_NAME":"SL-6 R\/B","OBJECT_ID":"1995-072C","EPOCH":"2026-03-09T22:54:38.541600","MEAN_MOTION":14.27013742,"ECCENTRICITY":0.00040881,"INCLINATION":98.7143,"RA_OF_ASC_NODE":140.0313,"ARG_OF_PERICENTER":34.9327,"MEAN_ANOMALY":325.2121,"EPHEMERIS_TYPE":0,"CLASSIFICATION_TYPE":"U","NORAD_CAT_ID":23753,"ELEMENT_SET_NO":999,"REV_AT_EPOCH":57176,"BSTAR":4.4526629e-5,"MEAN_MOTION_DOT":6.4e-7,"MEAN_MOTION_DDOT":0}]
